{
  "type": "FeatureCollection",
  "features": [
    {
      "type": "Feature",
      "properties": {
        "norad_id": 34814,
        "name": "COSMOS 2251 DEB",
        "group": "cosmos-2251-debris",
        "lat": 58.82748440780468,
        "lon": -3.3544359289594867,
        "alt_km": 799.2061808263643,
        "timestamp": "2025-12-11T07:02:24.126123+00:00",
        "meta_object_name": "COSMOS 2251 DEB",
        "meta_object_id": "1993-036ABD",
        "meta_epoch": "2025-12-10T09:43:34.915008",
        "meta_mean_motion": 14.36877129,
        "meta_eccentricity": 0.00563648,
        "meta_inclination": 73.896,
        "meta_ra_of_asc_node": 329.7665,
        "meta_arg_of_pericenter": 219.7218,
        "meta_mean_anomaly": 291.6009,
        "meta_ephemeris_type": 0,
        "meta_classification_type": "U",
        "meta_norad_cat_id": 34814,
        "meta_element_set_no": 999,
        "meta_rev_at_epoch": 87299,
        "meta_bstar": 0.0011961739,
        "meta_mean_motion_dot": 3.577e-05,
        "meta_mean_motion_ddot": 0,
        "tle_line1": "1 34814U 93036ABD 25344.40526522  .00003577  00000+0  11962-2 0  9997",
        "tle_line2": "2 34814  73.8960 329.7665 0056364 219.7218 291.6009 14.36877129872997"
      },
      "geometry": {
        "type": "Point",
        "coordinates": [
          -3.3544359289594867,
          58.82748440780468
        ]
      }
    },
    {
      "type": "Feature",
      "properties": {
        "norad_id": 34815,
        "name": "COSMOS 2251 DEB",
        "group": "cosmos-2251-debris",
        "lat": 3.5361983335485867,
        "lon": -114.34602321355625,
        "alt_km": 610.1168523003935,
        "timestamp": "2025-12-11T07:02:24.126133+00:00",
        "meta_object_name": "COSMOS 2251 DEB",
        "meta_object_id": "1993-036ABE",
        "meta_epoch": "2025-12-10T21:16:42.445632",
        "meta_mean_motion": 14.78271872,
        "meta_eccentricity": 0.00588748,
        "meta_inclination": 74.0449,
        "meta_ra_of_asc_node": 245.4392,
        "meta_arg_of_pericenter": 314.9671,
        "meta_mean_anomaly": 44.6738,
        "meta_ephemeris_type": 0,
        "meta_classification_type": "U",
        "meta_norad_cat_id": 34815,
        "meta_element_set_no": 999,
        "meta_rev_at_epoch": 88600,
        "meta_bstar": 0.0014313489,
        "meta_mean_motion_dot": 0.00010683,
        "meta_mean_motion_ddot": 0,
        "tle_line1": "1 34815U 93036ABE 25344.88660238  .00010683  00000+0  14313-2 0  9992",
        "tle_line2": "2 34815  74.0449 245.4392 0058874 314.9671  44.6738 14.78271872886004"
      },
      "geometry": {
        "type": "Point",
        "coordinates": [
          -114.34602321355625,
          3.5361983335485867
        ]
      }
    },
    {
      "type": "Feature",
      "properties": {
        "norad_id": 34816,
        "name": "COSMOS 2251 DEB",
        "group": "cosmos-2251-debris",
        "lat": -37.87487940950086,
        "lon": -21.524893654487133,
        "alt_km": 774.104575956997,
        "timestamp": "2025-12-11T07:02:24.126144+00:00",
        "meta_object_name": "COSMOS 2251 DEB",
        "meta_object_id": "1993-036ABF",
        "meta_epoch": "2025-12-10T17:42:10.764576",
        "meta_mean_motion": 13.58313762,
        "meta_eccentricity": 0.03735143,
        "meta_inclination": 73.8861,
        "meta_ra_of_asc_node": 146.3885,
        "meta_arg_of_pericenter": 211.2055,
        "meta_mean_anomaly": 171.3632,
        "meta_ephemeris_type": 0,
        "meta_classification_type": "U",
        "meta_norad_cat_id": 34816,
        "meta_element_set_no": 999,
        "meta_rev_at_epoch": 82756,
        "meta_bstar": 0.0018191701,
        "meta_mean_motion_dot": 2.062e-05,
        "meta_mean_motion_ddot": 0,
        "tle_line1": "1 34816U 93036ABF 25344.73762459  .00002062  00000+0  18192-2 0  9996",
        "tle_line2": "2 34816  73.8861 146.3885 0373514 211.2055 171.3632 13.58313762827561"
      },
      "geometry": {
        "type": "Point",
        "coordinates": [
          -21.524893654487133,
          -37.87487940950086
        ]
      }
    },
    {
      "type": "Feature",
      "properties": {
        "norad_id": 34818,
        "name": "COSMOS 2251 DEB",
        "group": "cosmos-2251-debris",
        "lat": 42.987540567823956,
        "lon": 104.12371022954895,
        "alt_km": 772.9658067552045,
        "timestamp": "2025-12-11T07:02:24.126154+00:00",
        "meta_object_name": "COSMOS 2251 DEB",
        "meta_object_id": "1993-036ABH",
        "meta_epoch": "2025-12-10T07:44:16.027008",
        "meta_mean_motion": 14.36962335,
        "meta_eccentricity": 0.0024056,
        "meta_inclination": 74.0356,
        "meta_ra_of_asc_node": 301.3836,
        "meta_arg_of_pericenter": 17.6421,
        "meta_mean_anomaly": 136.2189,
        "meta_ephemeris_type": 0,
        "meta_classification_type": "U",
        "meta_norad_cat_id": 34818,
        "meta_element_set_no": 999,
        "meta_rev_at_epoch": 87335,
        "meta_bstar": 0.0003859,
        "meta_mean_motion_dot": 1.121e-05,
        "meta_mean_motion_ddot": 0,
        "tle_line1": "1 34818U 93036ABH 25344.32240772  .00001121  00000+0  38590-3 0  9992",
        "tle_line2": "2 34818  74.0356 301.3836 0024056  17.6421 136.2189 14.36962335873351"
      },
      "geometry": {
        "type": "Point",
        "coordinates": [
          104.12371022954895,
          42.987540567823956
        ]
      }
    },
    {
      "type": "Feature",
      "properties": {
        "norad_id": 34819,
        "name": "COSMOS 2251 DEB",
        "group": "cosmos-2251-debris",
        "lat": -73.88110696571721,
        "lon": 62.84294262786187,
        "alt_km": 678.1405162636611,
        "timestamp": "2025-12-11T07:02:24.126165+00:00",
        "meta_object_name": "COSMOS 2251 DEB",
        "meta_object_id": "1993-036ABJ",
        "meta_epoch": "2025-12-09T21:41:51.224640",
        "meta_mean_motion": 14.63892789,
        "meta_eccentricity": 0.00157861,
        "meta_inclination": 74.0186,
        "meta_ra_of_asc_node": 148.1101,
        "meta_arg_of_pericenter": 242.0271,
        "meta_mean_anomaly": 271.3932,
        "meta_ephemeris_type": 0,
        "meta_classification_type": "U",
        "meta_norad_cat_id": 34819,
        "meta_element_set_no": 999,
        "meta_rev_at_epoch": 88187,
        "meta_bstar": 0.0022468866,
        "meta_mean_motion_dot": 0.00011759,
        "meta_mean_motion_ddot": 0,
        "tle_line1": "1 34819U 93036ABJ 25343.90406510  .00011759  00000+0  22469-2 0  9995",
        "tle_line2": "2 34819  74.0186 148.1101 0015786 242.0271 271.3932 14.63892789881870"
      },
      "geometry": {
        "type": "Point",
        "coordinates": [
          62.84294262786187,
          -73.88110696571721
        ]
      }
    },
    {
      "type": "Feature",
      "properties": {
        "norad_id": 34823,
        "name": "COSMOS 2251 DEB",
        "group": "cosmos-2251-debris",
        "lat": 5.907105149929645,
        "lon": 106.7152193118652,
        "alt_km": 821.0054706960555,
        "timestamp": "2025-12-11T07:02:24.126175+00:00",
        "meta_object_name": "COSMOS 2251 DEB",
        "meta_object_id": "1993-036ABN",
        "meta_epoch": "2025-12-10T14:30:29.359008",
        "meta_mean_motion": 14.54904355,
        "meta_eccentricity": 0.0154887,
        "meta_inclination": 74.0414,
        "meta_ra_of_asc_node": 106.322,
        "meta_arg_of_pericenter": 191.6219,
        "meta_mean_anomaly": 168.1356,
        "meta_ephemeris_type": 0,
        "meta_classification_type": "U",
        "meta_norad_cat_id": 34823,
        "meta_element_set_no": 999,
        "meta_rev_at_epoch": 88350,
        "meta_bstar": 0.0013618,
        "meta_mean_motion_dot": 6.85e-05,
        "meta_mean_motion_ddot": 0,
        "tle_line1": "1 34823U 93036ABN 25344.60450647  .00006850  00000+0  13618-2 0  9990",
        "tle_line2": "2 34823  74.0414 106.3220 0154887 191.6219 168.1356 14.54904355883502"
      },
      "geometry": {
        "type": "Point",
        "coordinates": [
          106.7152193118652,
          5.907105149929645
        ]
      }
    },
    {
      "type": "Feature",
      "properties": {
        "norad_id": 34845,
        "name": "COSMOS 2251 DEB",
        "group": "cosmos-2251-debris",
        "lat": 20.743681502577417,
        "lon": 157.27944873614643,
        "alt_km": 733.2465498887486,
        "timestamp": "2025-12-11T07:02:24.126185+00:00",
        "meta_object_name": "COSMOS 2251 DEB",
        "meta_object_id": "1993-036ABP",
        "meta_epoch": "2025-12-09T20:04:05.418048",
        "meta_mean_motion": 14.45850049,
        "meta_eccentricity": 0.00222586,
        "meta_inclination": 74.0237,
        "meta_ra_of_asc_node": 153.7694,
        "meta_arg_of_pericenter": 315.2139,
        "meta_mean_anomaly": 44.7222,
        "meta_ephemeris_type": 0,
        "meta_classification_type": "U",
        "meta_norad_cat_id": 34845,
        "meta_element_set_no": 999,
        "meta_rev_at_epoch": 87424,
        "meta_bstar": 0.00046671234,
        "meta_mean_motion_dot": 1.636e-05,
        "meta_mean_motion_ddot": 0,
        "tle_line1": "1 34845U 93036ABP 25343.83617382  .00001636  00000+0  46671-3 0  9992",
        "tle_line2": "2 34845  74.0237 153.7694 0022258 315.2139  44.7222 14.45850049874243"
      },
      "geometry": {
        "type": "Point",
        "coordinates": [
          157.27944873614643,
          20.743681502577417
        ]
      }
    }
  ]
}